ORBCOMM-X               
1 21576U 91050C   25191.60197598  .00000190  00000+0  69232-4 0  9994
2 21576  98.3427 257.7235 0004857 110.5453 249.6259 14.43276323785495
ORBCOMM FM01            
1 23545U 95017A   25191.62651266  .00002792  00000+0  29591-3 0  9991
2 23545  69.9633  15.6770 0005462 269.8091  90.2438 14.90260193616009
ORBCOMM FM02            
1 23546U 95017B   25191.62245214  .00003586  00000+0  36913-3 0  9992
2 23546  69.9646  35.0027 0006856 270.5314  89.5056 14.91165358615655
ORBCOMM FM08            
1 25112U 97084A   25191.46612962  .00000619  00000+0  21319-3 0  9997
2 25112  45.0136 256.1125 0005566 342.7365  17.3297 14.45860611444744
ORBCOMM FM10            
1 25113U 97084B   25191.38154721  .00000548  00000+0  19406-3 0  9998
2 25113  45.0149 258.9393 0005507 304.4185  55.6145 14.45647761619870
ORBCOMM FM11            
1 25114U 97084C   25191.45923142  .00000611  00000+0  21283-3 0  9995
2 25114  45.0134 259.2416 0006161 309.3558  50.6747 14.45397986444847
ORBCOMM FM12            
1 25115U 97084D   25191.49049433  .00000589  00000+0  20649-3 0  9991
2 25115  45.0143 258.8395 0005372 303.0217  57.0117 14.45418340444643
ORBCOMM FM09            
1 25116U 97084E   25191.45569584  .00000593  00000+0  20830-3 0  9999
2 25116  45.0146 259.9623 0006918 299.4846  60.5314 14.45293448444846
